STARLINK-2629
1 18686C 21044BA  21326.16786139  .00005804  00000-0  38891-3 0  3261
2 18686  53.0534 277.9722 0001897  60.5581 267.7416 15.06392066    12
